[{"OBJECT_NAME":"LEMUR-2-ANDIS","OBJECT_ID":"2017-042P","EPOCH":"2026-03-09T13:25:33.116448","MEAN_MOTION":15.30557934,"ECCENTRICITY":0.0009101,"INCLINATION":97.3659,"RA_OF_ASC_NODE":249.795,"ARG_OF_PERICENTER":4.3248,"MEAN_ANOMALY":355.807,"EPHEMERIS_TYPE":0,"CLASSIFICATION_TYPE":"U","NORAD_CAT_ID":42838,"ELEMENT_SET_NO":999,"REV_AT_EPOCH":47319,"BSTAR":0.00079875,"MEAN_MOTION_DOT":0.00023598,"MEAN_MOTION_DDOT":0},{"OBJECT_NAME":"STARLINK-30534","OBJECT_ID":"2023-153B","EPOCH":"2026-03-09T23:28:27.193728","MEAN_MOTION":15.2732689,"ECCENTRICITY":2.726e-5,"INCLINATION":42.9996,"RA_OF_ASC_NODE":65.1547,"ARG_OF_PERICENTER":225.5896,"MEAN_ANOMALY":134.4933,"EPHEMERIS_TYPE":0,"CLASSIFICATION_TYPE":"U","NORAD_CAT_ID":57992,"ELEMENT_SET_NO":999,"REV_AT_EPOCH":13484,"BSTAR":0.0056972934,"MEAN_MOTION_DOT":0.00158702,"MEAN_MOTION_DDOT":0}]
